CSS (TIANHE)            
1 48274U 21035A   24225.69146856  .00092737  00000+0  10906-2 0  9991
2 48274  41.4682  98.7104 0001948 245.3369 114.7267 15.60367692187936
